{"type": "FeatureCollection", "features": [ {"type": "Feature", "properties": {"norad_id": 35194, "name": "FENGYUN 1C DEB", "group": "fengyun-1c-debris", "lat": -21.7265451830427, "lon": -102.11360314556292, "alt_km": 771.9846791511281, "timestamp": "2025-12-23T07:45:09.691980+00:00", "meta": {"OBJECT_NAME": "FENGYUN 1C DEB", "OBJECT_ID": "1999-025DPA", "EPOCH": "2025-12-12T01:09:46.826496", "MEAN_MOTION": 14.60293761, "ECCENTRICITY": 0.01145377, "INCLINATION": 98.9481, "RA_OF_ASC_NODE": 69.3173, "ARG_OF_PERICENTER": 78.0348, "MEAN_ANOMALY": 283.3663, "EPHEMERIS_TYPE": 0, "CLASSIFICATION_TYPE": "U", "NORAD_CAT_ID": 35194, "ELEMENT_SET_NO": 999, "REV_AT_EPOCH": 65380, "BSTAR": 0.0013884757, "MEAN_MOTION_DOT": 7.302e-05, "MEAN_MOTION_DDOT": 0}, "tle": {"line1": "1 35194U 99025DPA 25346.04845864  .00007302  00000+0  13885-2 0  9994", "line2": "2 35194  98.9481  69.3173 0114537  78.0348 283.3663 14.60293761653805"}}, "geometry": {"type": "Point", "coordinates": [-102.11360314556292, -21.7265451830427]}}, {"type": "Feature", "properties": {"norad_id": 35195, "name": "FENGYUN 1C DEB", "group": "fengyun-1c-debris", "lat": 43.47518510866708, "lon": 83.83106727740143, "alt_km": 629.6491147812967, "timestamp": "2025-12-23T07:45:09.691990+00:00", "meta": {"OBJECT_NAME": "FENGYUN 1C DEB", "OBJECT_ID": "1999-025DPB", "EPOCH": "2025-12-22T00:13:11.050752", "MEAN_MOTION": 14.56075871, "ECCENTRICITY": 0.01032816, "INCLINATION": 98.9839, "RA_OF_ASC_NODE": 91.0439, "ARG_OF_PERICENTER": 40.5649, "MEAN_ANOMALY": 320.3184, "EPHEMERIS_TYPE": 0, "CLASSIFICATION_TYPE": "U", "NORAD_CAT_ID": 35195, "ELEMENT_SET_NO": 999, "REV_AT_EPOCH": 91061, "BSTAR": 0.00065824609, "MEAN_MOTION_DOT": 3.061e-05, "MEAN_MOTION_DDOT": 0}, "tle": {"line1": "1 35195U 99025DPB 25356.00915568  .00003061  00000+0  65825-3 0  9991", "line2": "2 35195  98.9839  91.0439 0103281  40.5649 320.3184 14.56075871910612"}}, "geometry": {"type": "Point", "coordinates": [83.83106727740143, 43.47518510866708]}}, {"type": "Feature", "properties": {"norad_id": 35196, "name": "FENGYUN 1C DEB", "group": "fengyun-1c-debris", "lat": -46.416854117772445, "lon": -176.95306097391065, "alt_km": 804.3246272493225, "timestamp": "2025-12-23T07:45:09.692000+00:00", "meta": {"OBJECT_NAME": "FENGYUN 1C DEB", "OBJECT_ID": "1999-025DPC", "EPOCH": "2025-12-22T19:41:57.202944", "MEAN_MOTION": 14.19826634, "ECCENTRICITY": 0.02138633, "INCLINATION": 98.5348, "RA_OF_ASC_NODE": 11.6406, "ARG_OF_PERICENTER": 309.0699, "MEAN_ANOMALY": 234.7289, "EPHEMERIS_TYPE": 0, "CLASSIFICATION_TYPE": "U", "NORAD_CAT_ID": 35196, "ELEMENT_SET_NO": 999, "REV_AT_EPOCH": 89277, "BSTAR": 0.00075907317, "MEAN_MOTION_DOT": 1.977e-05, "MEAN_MOTION_DDOT": 0}, "tle": {"line1": "1 35196U 99025DPC 25356.82080096  .00001977  00000+0  75907-3 0  9997", "line2": "2 35196  98.5348  11.6406 0213863 309.0699 234.7289 14.19826634892772"}}, "geometry": {"type": "Point", "coordinates": [-176.95306097391065, -46.416854117772445]}}, {"type": "Feature", "properties": {"norad_id": 35200, "name": "FENGYUN 1C DEB", "group": "fengyun-1c-debris", "lat": -52.67054660394271, "lon": 141.65113238955112, "alt_km": 1356.1902124756516, "timestamp": "2025-12-23T07:45:09.692012+00:00", "meta": {"OBJECT_NAME": "FENGYUN 1C DEB", "OBJECT_ID": "1999-025DPG", "EPOCH": "2025-12-22T21:47:15.315360", "MEAN_MOTION": 13.41967447, "ECCENTRICITY": 0.03531049, "INCLINATION": 98.8712, "RA_OF_ASC_NODE": 333.1026, "ARG_OF_PERICENTER": 34.6945, "MEAN_ANOMALY": 355.3543, "EPHEMERIS_TYPE": 0, "CLASSIFICATION_TYPE": "U", "NORAD_CAT_ID": 35200, "ELEMENT_SET_NO": 999, "REV_AT_EPOCH": 66040, "BSTAR": 0.00045645271, "MEAN_MOTION_DOT": 3.35e-06, "MEAN_MOTION_DDOT": 0}, "tle": {"line1": "1 35200U 99025DPG 25356.90781615  .00000335  00000+0  45645-3 0  9990", "line2": "2 35200  98.8712 333.1026 0353104  34.6945 355.3543 13.41967447660402"}}, "geometry": {"type": "Point", "coordinates": [141.65113238955112, -52.67054660394271]}}, {"type": "Feature", "properties": {"norad_id": 35201, "name": "FENGYUN 1C DEB", "group": "fengyun-1c-debris", "lat": -80.00007334244346, "lon": 66.39674208932252, "alt_km": 860.8001462754619, "timestamp": "2025-12-23T07:45:09.692024+00:00", "meta": {"OBJECT_NAME": "FENGYUN 1C DEB", "OBJECT_ID": "1999-025DPH", "EPOCH": "2025-12-22T19:23:05.889120", "MEAN_MOTION": 14.11056307, "ECCENTRICITY": 0.00061541, "INCLINATION": 98.7076, "RA_OF_ASC_NODE": 5.5368, "ARG_OF_PERICENTER": 217.2349, "MEAN_ANOMALY": 321.3716, "EPHEMERIS_TYPE": 0, "CLASSIFICATION_TYPE": "U", "NORAD_CAT_ID": 35201, "ELEMENT_SET_NO": 999, "REV_AT_EPOCH": 87161, "BSTAR": 6.9856612e-05, "MEAN_MOTION_DOT": 8.3e-07, "MEAN_MOTION_DDOT": 0}, "tle": {"line1": "1 35201U 99025DPH 25356.80770705  .00000083  00000+0  69857-4 0  9990", "line2": "2 35201  98.7076   5.5368 0006154 217.2349 321.3716 14.11056307871615"}}, "geometry": {"type": "Point", "coordinates": [66.39674208932252, -80.00007334244346]}}, {"type": "Feature", "properties": {"norad_id": 35202, "name": "FENGYUN 1C DEB", "group": "fengyun-1c-debris", "lat": -12.842200876524828, "lon": -140.10076075043995, "alt_km": 1373.325425009095, "timestamp": "2025-12-23T07:45:09.692033+00:00", "meta": {"OBJECT_NAME": "FENGYUN 1C DEB", "OBJECT_ID": "1999-025DPJ", "EPOCH": "2025-12-16T02:04:31.277568", "MEAN_MOTION": 13.34745262, "ECCENTRICITY": 0.03737817, "INCLINATION": 100.0908, "RA_OF_ASC_NODE": 35.0737, "ARG_OF_PERICENTER": 0.1614, "MEAN_ANOMALY": 359.9571, "EPHEMERIS_TYPE": 0, "CLASSIFICATION_TYPE": "U", "NORAD_CAT_ID": 35202, "ELEMENT_SET_NO": 999, "REV_AT_EPOCH": 57021, "BSTAR": 0.00048107163, "MEAN_MOTION_DOT": 3.14e-06, "MEAN_MOTION_DDOT": 0}, "tle": {"line1": "1 35202U 99025DPJ 25350.08647312  .00000314  00000+0  48107-3 0  9993", "line2": "2 35202 100.0908  35.0737 0373781   0.1614 359.9571 13.34745262570219"}}, "geometry": {"type": "Point", "coordinates": [-140.10076075043995, -12.842200876524828]}}, {"type": "Feature", "properties": {"norad_id": 35203, "name": "FENGYUN 1C DEB", "group": "fengyun-1c-debris", "lat": -34.63188452301167, "lon": -25.43504372220766, "alt_km": 1546.9939802329327, "timestamp": "2025-12-23T07:45:09.692045+00:00", "meta": {"OBJECT_NAME": "FENGYUN 1C DEB", "OBJECT_ID": "1999-025DPK", "EPOCH": "2025-12-20T18:24:01.433664", "MEAN_MOTION": 13.26452017, "ECCENTRICITY": 0.05114994, "INCLINATION": 102.0715, "RA_OF_ASC_NODE": 323.0862, "ARG_OF_PERICENTER": 141.5564, "MEAN_ANOMALY": 222.3174, "EPHEMERIS_TYPE": 0, "CLASSIFICATION_TYPE": "U", "NORAD_CAT_ID": 35203, "ELEMENT_SET_NO": 999, "REV_AT_EPOCH": 59757, "BSTAR": 0.0017817179, "MEAN_MOTION_DOT": 1.55e-05, "MEAN_MOTION_DDOT": 0}, "tle": {"line1": "1 35203U 99025DPK 25354.76668326  .00001550  00000+0  17817-2 0  9997", "line2": "2 35203 102.0715 323.0862 0511499 141.5564 222.3174 13.26452017597575"}}, "geometry": {"type": "Point", "coordinates": [-25.43504372220766, -34.63188452301167]}}, {"type": "Feature", "properties": {"norad_id": 35204, "name": "FENGYUN 1C DEB", "group": "fengyun-1c-debris", "lat": -2.900870758691792, "lon": 6.104737738295224, "alt_km": 741.7676799802211, "timestamp": "2025-12-23T07:45:09.692057+00:00", "meta": {"OBJECT_NAME": "FENGYUN 1C DEB", "OBJECT_ID": "1999-025DPL", "EPOCH": "2025-12-21T09:03:39.055968", "MEAN_MOTION": 14.48905432, "ECCENTRICITY": 0.00394837, "INCLINATION": 99.0069, "RA_OF_ASC_NODE": 184.4907, "ARG_OF_PERICENTER": 298.2194, "MEAN_ANOMALY": 182.9509, "EPHEMERIS_TYPE": 0, "CLASSIFICATION_TYPE": "U", "NORAD_CAT_ID": 35204, "ELEMENT_SET_NO": 999, "REV_AT_EPOCH": 91055, "BSTAR": 0.0016476709, "MEAN_MOTION_DOT": 6.251e-05, "MEAN_MOTION_DDOT": 0}, "tle": {"line1": "1 35204U 99025DPL 25355.37753537  .00006251  00000+0  16477-2 0  9999", "line2": "2 35204  99.0069 184.4907 0039483 298.2194 182.9509 14.48905432910558"}}, "geometry": {"type": "Point", "coordinates": [6.104737738295224, -2.900870758691792]}}, {"type": "Feature", "properties": {"norad_id": 35207, "name": "FENGYUN 1C DEB", "group": "fengyun-1c-debris", "lat": -9.124858259435332, "lon": 97.48450991562794, "alt_km": 735.3038768717197, "timestamp": "2025-12-23T07:45:09.692067+00:00", "meta": {"OBJECT_NAME": "FENGYUN 1C DEB", "OBJECT_ID": "1999-025DPP", "EPOCH": "2025-12-18T12:18:35.176032", "MEAN_MOTION": 14.55542717, "ECCENTRICITY": 0.00552305, "INCLINATION": 98.6905, "RA_OF_ASC_NODE": 91.073, "ARG_OF_PERICENTER": 237.6836, "MEAN_ANOMALY": 121.9005, "EPHEMERIS_TYPE": 0, "CLASSIFICATION_TYPE": "U", "NORAD_CAT_ID": 35207, "ELEMENT_SET_NO": 999, "REV_AT_EPOCH": 64988, "BSTAR": 0.0018220991, "MEAN_MOTION_DOT": 8.059e-05, "MEAN_MOTION_DDOT": 0}, "tle": {"line1": "1 35207U 99025DPP 25352.51290713  .00008059  00000+0  18221-2 0  9994", "line2": "2 35207  98.6905  91.0730 0055230 237.6836 121.9005 14.55542717649880"}}, "geometry": {"type": "Point", "coordinates": [97.48450991562794, -9.124858259435332]}}, {"type": "Feature", "properties": {"norad_id": 35208, "name": "FENGYUN 1C DEB", "group": "fengyun-1c-debris", "lat": 11.891058027307752, "lon": 14.341342880942278, "alt_km": 926.8100826149639, "timestamp": "2025-12-23T07:45:09.692111+00:00", "meta": {"OBJECT_NAME": "FENGYUN 1C DEB", "OBJECT_ID": "1999-025DPQ", "EPOCH": "2025-12-12T19:29:45.564288", "MEAN_MOTION": 13.99657071, "ECCENTRICITY": 0.01013151, "INCLINATION": 98.903, "RA_OF_ASC_NODE": 6.0094, "ARG_OF_PERICENTER": 156.4473, "MEAN_ANOMALY": 204.1379, "EPHEMERIS_TYPE": 0, "CLASSIFICATION_TYPE": "U", "NORAD_CAT_ID": 35208, "ELEMENT_SET_NO": 999, "REV_AT_EPOCH": 90564, "BSTAR": 0.0013122763, "MEAN_MOTION_DOT": 1.963e-05, "MEAN_MOTION_DDOT": 0}, "tle": {"line1": "1 35208U 99025DPQ 25346.81233292  .00001963  00000+0  13123-2 0  9993", "line2": "2 35208  98.9030   6.0094 0101315 156.4473 204.1379 13.99657071905647"}}, "geometry": {"type": "Point", "coordinates": [14.341342880942278, 11.891058027307752]}}]}